[{"OBJECT_NAME":"STARLINK-2515","OBJECT_ID":"2021-036AZ","EPOCH":"2026-03-10T00:00:02.999808","MEAN_MOTION":15.25832305,"ECCENTRICITY":0.00014246,"INCLINATION":53.1397,"RA_OF_ASC_NODE":99.5284,"ARG_OF_PERICENTER":94.5239,"MEAN_ANOMALY":78.0467,"EPHEMERIS_TYPE":0,"CLASSIFICATION_TYPE":"U","NORAD_CAT_ID":48323,"ELEMENT_SET_NO":999,"REV_AT_EPOCH":579,"BSTAR":0.064747321,"MEAN_MOTION_DOT":0.01845518,"MEAN_MOTION_DDOT":0},{"OBJECT_NAME":"KUIPER-00144","OBJECT_ID":"2025-301A","EPOCH":"2026-03-09T04:46:22.555488","MEAN_MOTION":15.38335313,"ECCENTRICITY":0.00079737,"INCLINATION":51.8709,"RA_OF_ASC_NODE":67.4364,"ARG_OF_PERICENTER":24.6117,"MEAN_ANOMALY":335.525,"EPHEMERIS_TYPE":0,"CLASSIFICATION_TYPE":"U","NORAD_CAT_ID":67133,"ELEMENT_SET_NO":999,"REV_AT_EPOCH":1366,"BSTAR":0.0010007311,"MEAN_MOTION_DOT":0.00038249,"MEAN_MOTION_DDOT":0}]
